{"type": "FeatureCollection", "features": [ {"type": "Feature", "properties": {"norad_id": 30815, "name": "FENGYUN 1C DEB", "group": "fengyun-1c-debris", "lat": -80.12516570565998, "lon": -91.94719648234283, "alt_km": 652.8681819917592, "timestamp": "2025-12-26T10:30:50.546502+00:00", "meta": {"OBJECT_NAME": "FENGYUN 1C DEB", "OBJECT_ID": "1999-025AUZ", "EPOCH": "2025-12-23T09:52:41.162592", "MEAN_MOTION": 14.74049203, "ECCENTRICITY": 0.00029848, "INCLINATION": 99.3006, "RA_OF_ASC_NODE": 154.8747, "ARG_OF_PERICENTER": 269.0391, "MEAN_ANOMALY": 145.7514, "EPHEMERIS_TYPE": 0, "CLASSIFICATION_TYPE": "U", "NORAD_CAT_ID": 30815, "ELEMENT_SET_NO": 999, "REV_AT_EPOCH": 97937, "BSTAR": 0.0040540881, "MEAN_MOTION_DOT": 0.00026719, "MEAN_MOTION_DDOT": 0}, "tle": {"line1": "1 30815U 99025AUZ 25357.41158753  .00026719  00000+0  40541-2 0  9998", "line2": "2 30815  99.3006 154.8747 0002984 269.0391 145.7514 14.74049203979371"}}, "geometry": {"type": "Point", "coordinates": [-91.94719648234283, -80.12516570565998]}}, {"type": "Feature", "properties": {"norad_id": 30816, "name": "FENGYUN 1C DEB", "group": "fengyun-1c-debris", "lat": 13.863958864560702, "lon": 68.75176434210819, "alt_km": 795.6022048575915, "timestamp": "2025-12-26T10:30:50.546512+00:00", "meta": {"OBJECT_NAME": "FENGYUN 1C DEB", "OBJECT_ID": "1999-025AVA", "EPOCH": "2025-12-26T03:55:42.499776", "MEAN_MOTION": 14.18090011, "ECCENTRICITY": 0.005153, "INCLINATION": 98.9129, "RA_OF_ASC_NODE": 70.696, "ARG_OF_PERICENTER": 16.3148, "MEAN_ANOMALY": 37.791, "EPHEMERIS_TYPE": 0, "CLASSIFICATION_TYPE": "U", "NORAD_CAT_ID": 30816, "ELEMENT_SET_NO": 999, "REV_AT_EPOCH": 96584, "BSTAR": 0.0014837, "MEAN_MOTION_DOT": 3.039e-05, "MEAN_MOTION_DDOT": 0}, "tle": {"line1": "1 30816U 99025AVA 25360.16368634  .00003039  00000+0  14837-2 0  9995", "line2": "2 30816  98.9129  70.6960 0051530  16.3148  37.7910 14.18090011965847"}}, "geometry": {"type": "Point", "coordinates": [68.75176434210819, 13.863958864560702]}}, {"type": "Feature", "properties": {"norad_id": 30817, "name": "FENGYUN 1C DEB", "group": "fengyun-1c-debris", "lat": -34.41712348047748, "lon": -3.7944312560228073, "alt_km": 917.7630935415282, "timestamp": "2025-12-26T10:30:50.546524+00:00", "meta": {"OBJECT_NAME": "FENGYUN 1C DEB", "OBJECT_ID": "1999-025AVB", "EPOCH": "2025-12-25T22:40:52.173120", "MEAN_MOTION": 14.0072807, "ECCENTRICITY": 0.0057714, "INCLINATION": 98.7856, "RA_OF_ASC_NODE": 349.6492, "ARG_OF_PERICENTER": 207.3055, "MEAN_ANOMALY": 152.5073, "EPHEMERIS_TYPE": 0, "CLASSIFICATION_TYPE": "U", "NORAD_CAT_ID": 30817, "ELEMENT_SET_NO": 999, "REV_AT_EPOCH": 96094, "BSTAR": 0.00015694, "MEAN_MOTION_DOT": 1.95e-06, "MEAN_MOTION_DDOT": 0}, "tle": {"line1": "1 30817U 99025AVB 25359.94504830  .00000195  00000+0  15694-3 0  9993", "line2": "2 30817  98.7856 349.6492 0057714 207.3055 152.5073 14.00728070960947"}}, "geometry": {"type": "Point", "coordinates": [-3.7944312560228073, -34.41712348047748]}}, {"type": "Feature", "properties": {"norad_id": 30820, "name": "FENGYUN 1C DEB", "group": "fengyun-1c-debris", "lat": 49.46360984805797, "lon": -73.21136649258388, "alt_km": 780.4386005402284, "timestamp": "2025-12-26T10:30:50.546534+00:00", "meta": {"OBJECT_NAME": "FENGYUN 1C DEB", "OBJECT_ID": "1999-025AVE", "EPOCH": "2025-12-25T12:33:12.194784", "MEAN_MOTION": 14.2149962, "ECCENTRICITY": 0.0051904, "INCLINATION": 98.6752, "RA_OF_ASC_NODE": 95.6053, "ARG_OF_PERICENTER": 151.6318, "MEAN_ANOMALY": 338.3208, "EPHEMERIS_TYPE": 0, "CLASSIFICATION_TYPE": "U", "NORAD_CAT_ID": 30820, "ELEMENT_SET_NO": 999, "REV_AT_EPOCH": 96605, "BSTAR": 0.0020011, "MEAN_MOTION_DOT": 4.399e-05, "MEAN_MOTION_DDOT": 0}, "tle": {"line1": "1 30820U 99025AVE 25359.52305781  .00004399  00000+0  20011-2 0  9993", "line2": "2 30820  98.6752  95.6053 0051904 151.6318 338.3208 14.21499620966055"}}, "geometry": {"type": "Point", "coordinates": [-73.21136649258388, 49.46360984805797]}}, {"type": "Feature", "properties": {"norad_id": 30821, "name": "FENGYUN 1C DEB", "group": "fengyun-1c-debris", "lat": 47.55329139455747, "lon": -25.798569203884774, "alt_km": 670.6647652856655, "timestamp": "2025-12-26T10:30:50.546558+00:00", "meta": {"OBJECT_NAME": "FENGYUN 1C DEB", "OBJECT_ID": "1999-025AVF", "EPOCH": "2025-12-25T22:54:45.761184", "MEAN_MOTION": 14.49745385, "ECCENTRICITY": 0.0086733, "INCLINATION": 99.1039, "RA_OF_ASC_NODE": 143.5826, "ARG_OF_PERICENTER": 166.5334, "MEAN_ANOMALY": 324.1746, "EPHEMERIS_TYPE": 0, "CLASSIFICATION_TYPE": "U", "NORAD_CAT_ID": 30821, "ELEMENT_SET_NO": 999, "REV_AT_EPOCH": 98980, "BSTAR": 0.00086483, "MEAN_MOTION_DOT": 3.442e-05, "MEAN_MOTION_DDOT": 0}, "tle": {"line1": "1 30821U 99025AVF 25359.95469631  .00003442  00000+0  86483-3 0  9990", "line2": "2 30821  99.1039 143.5826 0086733 166.5334 324.1746 14.49745385989802"}}, "geometry": {"type": "Point", "coordinates": [-25.798569203884774, 47.55329139455747]}}, {"type": "Feature", "properties": {"norad_id": 30822, "name": "FENGYUN 1C DEB", "group": "fengyun-1c-debris", "lat": -41.06353490685354, "lon": 35.829945561208895, "alt_km": 844.8297698059941, "timestamp": "2025-12-26T10:30:50.546573+00:00", "meta": {"OBJECT_NAME": "FENGYUN 1C DEB", "OBJECT_ID": "1999-025AVG", "EPOCH": "2025-12-25T21:41:02.055264", "MEAN_MOTION": 14.11358702, "ECCENTRICITY": 0.0073367, "INCLINATION": 98.7341, "RA_OF_ASC_NODE": 27.6129, "ARG_OF_PERICENTER": 247.5559, "MEAN_ANOMALY": 235.4128, "EPHEMERIS_TYPE": 0, "CLASSIFICATION_TYPE": "U", "NORAD_CAT_ID": 30822, "ELEMENT_SET_NO": 999, "REV_AT_EPOCH": 96887, "BSTAR": 0.00034086, "MEAN_MOTION_DOT": 5.89e-06, "MEAN_MOTION_DDOT": 0}, "tle": {"line1": "1 30822U 99025AVG 25359.90349601  .00000589  00000+0  34086-3 0  9991", "line2": "2 30822  98.7341  27.6129 0073367 247.5559 235.4128 14.11358702968874"}}, "geometry": {"type": "Point", "coordinates": [35.829945561208895, -41.06353490685354]}}, {"type": "Feature", "properties": {"norad_id": 30823, "name": "FENGYUN 1C DEB", "group": "fengyun-1c-debris", "lat": -20.725517876494724, "lon": 144.2822944316615, "alt_km": 851.3488496360369, "timestamp": "2025-12-26T10:30:50.546583+00:00", "meta": {"OBJECT_NAME": "FENGYUN 1C DEB", "OBJECT_ID": "1999-025AVH", "EPOCH": "2025-12-25T09:13:30.836352", "MEAN_MOTION": 14.02567843, "ECCENTRICITY": 0.0134243, "INCLINATION": 98.7637, "RA_OF_ASC_NODE": 139.9222, "ARG_OF_PERICENTER": 49.3864, "MEAN_ANOMALY": 13.7121, "EPHEMERIS_TYPE": 0, "CLASSIFICATION_TYPE": "U", "NORAD_CAT_ID": 30823, "ELEMENT_SET_NO": 999, "REV_AT_EPOCH": 96211, "BSTAR": 0.00018271, "MEAN_MOTION_DOT": 2.63e-06, "MEAN_MOTION_DDOT": 0}, "tle": {"line1": "1 30823U 99025AVH 25359.38438468  .00000263  00000+0  18271-3 0  9991", "line2": "2 30823  98.7637 139.9222 0134243  49.3864  13.7121 14.02567843962111"}}, "geometry": {"type": "Point", "coordinates": [144.2822944316615, -20.725517876494724]}}, {"type": "Feature", "properties": {"norad_id": 30826, "name": "FENGYUN 1C DEB", "group": "fengyun-1c-debris", "lat": 70.12892072925465, "lon": 171.34017348333325, "alt_km": 662.6471563157911, "timestamp": "2025-12-26T10:30:50.546594+00:00", "meta": {"OBJECT_NAME": "FENGYUN 1C DEB", "OBJECT_ID": "1999-025AVL", "EPOCH": "2025-12-24T00:34:49.139040", "MEAN_MOTION": 14.82336846, "ECCENTRICITY": 0.01445927, "INCLINATION": 98.8661, "RA_OF_ASC_NODE": 194.2541, "ARG_OF_PERICENTER": 321.0518, "MEAN_ANOMALY": 195.6157, "EPHEMERIS_TYPE": 0, "CLASSIFICATION_TYPE": "U", "NORAD_CAT_ID": 30826, "ELEMENT_SET_NO": 999, "REV_AT_EPOCH": 453, "BSTAR": 0.00056329676, "MEAN_MOTION_DOT": 5.334e-05, "MEAN_MOTION_DDOT": 0}, "tle": {"line1": "1 30826U 99025AVL 25358.02417985  .00005334  00000+0  56330-3 0  9997", "line2": "2 30826  98.8661 194.2541 0144592 321.0518 195.6157 14.82336846  4531"}}, "geometry": {"type": "Point", "coordinates": [171.34017348333325, 70.12892072925465]}}, {"type": "Feature", "properties": {"norad_id": 30827, "name": "FENGYUN 1C DEB", "group": "fengyun-1c-debris", "lat": -16.8782389544538, "lon": 163.74251490041488, "alt_km": 753.7355952011449, "timestamp": "2025-12-26T10:30:50.546606+00:00", "meta": {"OBJECT_NAME": "FENGYUN 1C DEB", "OBJECT_ID": "1999-025AVM", "EPOCH": "2025-12-22T05:24:17.025120", "MEAN_MOTION": 14.37918372, "ECCENTRICITY": 0.00439891, "INCLINATION": 99.0037, "RA_OF_ASC_NODE": 342.0879, "ARG_OF_PERICENTER": 150.3136, "MEAN_ANOMALY": 210.056, "EPHEMERIS_TYPE": 0, "CLASSIFICATION_TYPE": "U", "NORAD_CAT_ID": 30827, "ELEMENT_SET_NO": 999, "REV_AT_EPOCH": 96685, "BSTAR": 0.0026816406, "MEAN_MOTION_DOT": 8.15e-05, "MEAN_MOTION_DDOT": 0}, "tle": {"line1": "1 30827U 99025AVM 25356.22519705  .00008150  00000+0  26816-2 0  9995", "line2": "2 30827  99.0037 342.0879 0043989 150.3136 210.0560 14.37918372966858"}}, "geometry": {"type": "Point", "coordinates": [163.74251490041488, -16.8782389544538]}}, {"type": "Feature", "properties": {"norad_id": 30828, "name": "FENGYUN 1C DEB", "group": "fengyun-1c-debris", "lat": -9.39279466284592, "lon": 109.3376735048948, "alt_km": 759.4388790031426, "timestamp": "2025-12-26T10:30:50.546616+00:00", "meta": {"OBJECT_NAME": "FENGYUN 1C DEB", "OBJECT_ID": "1999-025AVN", "EPOCH": "2025-12-25T20:30:29.505888", "MEAN_MOTION": 14.77402415, "ECCENTRICITY": 0.02081296, "INCLINATION": 98.3759, "RA_OF_ASC_NODE": 107.3347, "ARG_OF_PERICENTER": 136.9719, "MEAN_ANOMALY": 353.0613, "EPHEMERIS_TYPE": 0, "CLASSIFICATION_TYPE": "U", "NORAD_CAT_ID": 30828, "ELEMENT_SET_NO": 999, "REV_AT_EPOCH": 98850, "BSTAR": 0.001418752, "MEAN_MOTION_DOT": 0.00014449, "MEAN_MOTION_DDOT": 0}, "tle": {"line1": "1 30828U 99025AVN 25359.85450817  .00014449  00000+0  14188-2 0  9993", "line2": "2 30828  98.3759 107.3347 0208129 136.9719 353.0613 14.77402415988503"}}, "geometry": {"type": "Point", "coordinates": [109.3376735048948, -9.39279466284592]}}]}